[{"OBJECT_NAME":"CONNECTA IOT-10","OBJECT_ID":"2025-135AD","EPOCH":"2026-03-09T07:35:31.513344","MEAN_MOTION":15.2050793,"ECCENTRICITY":6.9e-5,"INCLINATION":97.4557,"RA_OF_ASC_NODE":184.3751,"ARG_OF_PERICENTER":59.0746,"MEAN_ANOMALY":301.0557,"EPHEMERIS_TYPE":0,"CLASSIFICATION_TYPE":"U","NORAD_CAT_ID":64555,"ELEMENT_SET_NO":999,"REV_AT_EPOCH":3968,"BSTAR":0.00024785757,"MEAN_MOTION_DOT":5.349e-5,"MEAN_MOTION_DDOT":0},{"OBJECT_NAME":"CZ-6A DEB","OBJECT_ID":"2022-151ME","EPOCH":"2026-03-09T17:07:50.636064","MEAN_MOTION":15.20556855,"ECCENTRICITY":0.00283971,"INCLINATION":98.6182,"RA_OF_ASC_NODE":149.2426,"ARG_OF_PERICENTER":178.5587,"MEAN_ANOMALY":181.5732,"EPHEMERIS_TYPE":0,"CLASSIFICATION_TYPE":"U","NORAD_CAT_ID":54578,"ELEMENT_SET_NO":999,"REV_AT_EPOCH":10518,"BSTAR":0.0077423675,"MEAN_MOTION_DOT":0.00175116,"MEAN_MOTION_DDOT":0}]
